[{"OBJECT_NAME":"SL-6 R/B(2)","OBJECT_ID":"1990-064D","EPOCH":"2026-04-04T22:45:00.508320","MEAN_MOTION":2.04548417,"ECCENTRICITY":0.61886575,"INCLINATION":69.2828,"RA_OF_ASC_NODE":103.8849,"ARG_OF_PERICENTER":13.7466,"MEAN_ANOMALY":357.4356,"EPHEMERIS_TYPE":0,"CLASSIFICATION_TYPE":"U","NORAD_CAT_ID":20710,"ELEMENT_SET_NO":999,"REV_AT_EPOCH":26657,"BSTAR":0,"MEAN_MOTION_DOT":-5.15e-6,"MEAN_MOTION_DDOT":0},{"OBJECT_NAME":"MARCOPOLO 2 R/B [PAM-D]","OBJECT_ID":"1990-074C","EPOCH":"2026-04-05T15:13:23.997792","MEAN_MOTION":2.18678044,"ECCENTRICITY":0.7279319,"INCLINATION":20.838,"RA_OF_ASC_NODE":271.7694,"ARG_OF_PERICENTER":58.6638,"MEAN_ANOMALY":352.6977,"EPHEMERIS_TYPE":0,"CLASSIFICATION_TYPE":"U","NORAD_CAT_ID":20764,"ELEMENT_SET_NO":999,"REV_AT_EPOCH":28220,"BSTAR":0.0012269,"MEAN_MOTION_DOT":1.78e-6,"MEAN_MOTION_DDOT":0},{"OBJECT_NAME":"SKYNET 4C","OBJECT_ID":"1990-079A","EPOCH":"2026-04-05T19:09:46.886112","MEAN_MOTION":1.00277507,"ECCENTRICITY":0.000343,"INCLINATION":13.3633,"RA_OF_ASC_NODE":350.3076,"ARG_OF_PERICENTER":21.727,"MEAN_ANOMALY":142.9228,"EPHEMERIS_TYPE":0,"CLASSIFICATION_TYPE":"U","NORAD_CAT_ID":20776,"ELEMENT_SET_NO":999,"REV_AT_EPOCH":13016,"BSTAR":0,"MEAN_MOTION_DOT":1.28e-6,"MEAN_MOTION_DDOT":0},{"OBJECT_NAME":"GOES 2 AKM","OBJECT_ID":"1977-048G","EPOCH":"2026-04-05T12:21:19.718784","MEAN_MOTION":1.00579867,"ECCENTRICITY":0.021045,"INCLINATION":4.2856,"RA_OF_ASC_NODE":276.3464,"ARG_OF_PERICENTER":106.3596,"MEAN_ANOMALY":276.8281,"EPHEMERIS_TYPE":0,"CLASSIFICATION_TYPE":"U","NORAD_CAT_ID":20799,"ELEMENT_SET_NO":999,"REV_AT_EPOCH":11710,"BSTAR":0,"MEAN_MOTION_DOT":-3.17e-6,"MEAN_MOTION_DDOT":0},{"OBJECT_NAME":"METEOSAT-4 AKM","OBJECT_ID":"1989-020E","EPOCH":"2026-04-05T18:09:27.571104","MEAN_MOTION":1.00469931,"ECCENTRICITY":0.0129361,"INCLINATION":11.0778,"RA_OF_ASC_NODE":331.7554,"ARG_OF_PERICENTER":255.0819,"MEAN_ANOMALY":299.3831,"EPHEMERIS_TYPE":0,"CLASSIFICATION_TYPE":"U","NORAD_CAT_ID":20800,"ELEMENT_SET_NO":999,"REV_AT_EPOCH":11547,"BSTAR":0,"MEAN_MOTION_DOT":-6.6e-7,"MEAN_MOTION_DDOT":0},{"OBJECT_NAME":"GOES 3 AKM","OBJECT_ID":"1978-062D","EPOCH":"2026-04-05T17:50:02.550048","MEAN_MOTION":0.99471341,"ECCENTRICITY":0.0106154,"INCLINATION":6.6316,"RA_OF_ASC_NODE":285.4943,"ARG_OF_PERICENTER":90.1446,"MEAN_ANOMALY":160.138,"EPHEMERIS_TYPE":0,"CLASSIFICATION_TYPE":"U","NORAD_CAT_ID":20801,"ELEMENT_SET_NO":999,"REV_AT_EPOCH":4624,"BSTAR":0,"MEAN_MOTION_DOT":-5.2e-7,"MEAN_MOTION_DDOT":0},{"OBJECT_NAME":"SMS 2 AKM","OBJECT_ID":"1975-011F","EPOCH":"2026-04-05T19:25:50.208960","MEAN_MOTION":0.98589311,"ECCENTRICITY":0.0099255,"INCLINATION":3.9572,"RA_OF_ASC_NODE":274.5949,"ARG_OF_PERICENTER":141.1647,"MEAN_ANOMALY":35.6258,"EPHEMERIS_TYPE":0,"CLASSIFICATION_TYPE":"U","NORAD_CAT_ID":20835,"ELEMENT_SET_NO":999,"REV_AT_EPOCH":4586,"BSTAR":0,"MEAN_MOTION_DOT":-1.99e-6,"MEAN_MOTION_DDOT":0},{"OBJECT_NAME":"SL-12 R/B(2)","OBJECT_ID":"1974-060F","EPOCH":"2026-04-05T20:08:47.659200","MEAN_MOTION":1.00307056,"ECCENTRICITY":0.001473,"INCLINATION":1.5398,"RA_OF_ASC_NODE":252.0322,"ARG_OF_PERICENTER":225.2657,"MEAN_ANOMALY":135.9477,"EPHEMERIS_TYPE":0,"CLASSIFICATION_TYPE":"U","NORAD_CAT_ID":20836,"ELEMENT_SET_NO":999,"REV_AT_EPOCH":4528,"BSTAR":0,"MEAN_MOTION_DOT":-3.61e-6,"MEAN_MOTION_DDOT":0},{"OBJECT_NAME":"METEOSAT-2 AKM (MAGE 1)","OBJECT_ID":"1981-057F","EPOCH":"2026-04-05T08:22:15.000672","MEAN_MOTION":0.99368723,"ECCENTRICITY":0.00715265,"INCLINATION":7.7428,"RA_OF_ASC_NODE":299.0246,"ARG_OF_PERICENTER":206.7793,"MEAN_ANOMALY":324.4467,"EPHEMERIS_TYPE":0,"CLASSIFICATION_TYPE":"U","NORAD_CAT_ID":20837,"ELEMENT_SET_NO":999,"REV_AT_EPOCH":11867,"BSTAR":0,"MEAN_MOTION_DOT":-3.03e-6,"MEAN_MOTION_DDOT":0},{"OBJECT_NAME":"GALAXY 6 (G-6)","OBJECT_ID":"1990-091B","EPOCH":"2026-04-05T14:14:21.710112","MEAN_MOTION":0.99768024,"ECCENTRICITY":0.0005091,"INCLINATION":13.9787,"RA_OF_ASC_NODE":10.5466,"ARG_OF_PERICENTER":259.722,"MEAN_ANOMALY":318.2164,"EPHEMERIS_TYPE":0,"CLASSIFICATION_TYPE":"U","NORAD_CAT_ID":20873,"ELEMENT_SET_NO":999,"REV_AT_EPOCH":4572,"BSTAR":0,"MEAN_MOTION_DOT":-5.7e-7,"MEAN_MOTION_DDOT":0},{"OBJECT_NAME":"GORIZONT 21","OBJECT_ID":"1990-094A","EPOCH":"2026-04-05T13:22:06.389760","MEAN_MOTION":1.00215739,"ECCENTRICITY":0.0006846,"INCLINATION":12.8058,"RA_OF_ASC_NODE":337.274,"ARG_OF_PERICENTER":271.0183,"MEAN_ANOMALY":277.4006,"EPHEMERIS_TYPE":0,"CLASSIFICATION_TYPE":"U","NORAD_CAT_ID":20923,"ELEMENT_SET_NO":999,"REV_AT_EPOCH":12972,"BSTAR":0,"MEAN_MOTION_DOT":-3.49e-6,"MEAN_MOTION_DDOT":0},{"OBJECT_NAME":"SL-12 R/B(2)","OBJECT_ID":"1990-094D","EPOCH":"2026-04-05T11:54:38.688768","MEAN_MOTION":1.00852362,"ECCENTRICITY":0.0032876,"INCLINATION":12.5644,"RA_OF_ASC_NODE":336.5467,"ARG_OF_PERICENTER":152.7481,"MEAN_ANOMALY":43.5792,"EPHEMERIS_TYPE":0,"CLASSIFICATION_TYPE":"U","NORAD_CAT_ID":20926,"ELEMENT_SET_NO":999,"REV_AT_EPOCH":13049,"BSTAR":0,"MEAN_MOTION_DOT":-1.9e-7,"MEAN_MOTION_DDOT":0},{"OBJECT_NAME":"GORIZONT 22","OBJECT_ID":"1990-102A","EPOCH":"2026-04-05T12:52:38.764128","MEAN_MOTION":1.00289348,"ECCENTRICITY":0.0004853,"INCLINATION":12.7933,"RA_OF_ASC_NODE":337.7499,"ARG_OF_PERICENTER":346.697,"MEAN_ANOMALY":201.8369,"EPHEMERIS_TYPE":0,"CLASSIFICATION_TYPE":"U","NORAD_CAT_ID":20953,"ELEMENT_SET_NO":999,"REV_AT_EPOCH":12964,"BSTAR":0,"MEAN_MOTION_DOT":-2.97e-6,"MEAN_MOTION_DDOT":0},{"OBJECT_NAME":"GOES 1 AKM","OBJECT_ID":"1975-100F","EPOCH":"2026-04-04T23:33:47.226240","MEAN_MOTION":1.01935223,"ECCENTRICITY":0.0271311,"INCLINATION":2.4893,"RA_OF_ASC_NODE":254.3672,"ARG_OF_PERICENTER":90.6494,"MEAN_ANOMALY":272.0517,"EPHEMERIS_TYPE":0,"CLASSIFICATION_TYPE":"U","NORAD_CAT_ID":20962,"ELEMENT_SET_NO":999,"REV_AT_EPOCH":13540,"BSTAR":0,"MEAN_MOTION_DOT":-3.0e-6,"MEAN_MOTION_DDOT":0},{"OBJECT_NAME":"RADUGA 26","OBJECT_ID":"1990-112A","EPOCH":"2026-04-05T17:39:49.265568","MEAN_MOTION":1.00233455,"ECCENTRICITY":0.0003062,"INCLINATION":12.9005,"RA_OF_ASC_NODE":338.4163,"ARG_OF_PERICENTER":106.9235,"MEAN_ANOMALY":75.1802,"EPHEMERIS_TYPE":0,"CLASSIFICATION_TYPE":"U","NORAD_CAT_ID":21016,"ELEMENT_SET_NO":999,"REV_AT_EPOCH":12953,"BSTAR":0,"MEAN_MOTION_DOT":2.1e-7,"MEAN_MOTION_DDOT":0},{"OBJECT_NAME":"SL-12 R/B(2)","OBJECT_ID":"1990-112D","EPOCH":"2026-04-05T05:20:28.557600","MEAN_MOTION":1.0001335,"ECCENTRICITY":0.0024596,"INCLINATION":12.9614,"RA_OF_ASC_NODE":338.5923,"ARG_OF_PERICENTER":182.1395,"MEAN_ANOMALY":355.3597,"EPHEMERIS_TYPE":0,"CLASSIFICATION_TYPE":"U","NORAD_CAT_ID":21019,"ELEMENT_SET_NO":999,"REV_AT_EPOCH":11920,"BSTAR":0,"MEAN_MOTION_DOT":2.0e-8,"MEAN_MOTION_DDOT":0},{"OBJECT_NAME":"RADUGA-1 2","OBJECT_ID":"1990-116A","EPOCH":"2026-04-05T17:12:31.078368","MEAN_MOTION":1.00230401,"ECCENTRICITY":0.0003633,"INCLINATION":12.9422,"RA_OF_ASC_NODE":338.4422,"ARG_OF_PERICENTER":132.9069,"MEAN_ANOMALY":73.2957,"EPHEMERIS_TYPE":0,"CLASSIFICATION_TYPE":"U","NORAD_CAT_ID":21038,"ELEMENT_SET_NO":999,"REV_AT_EPOCH":4661,"BSTAR":0,"MEAN_MOTION_DOT":-2.56e-6,"MEAN_MOTION_DDOT":0},{"OBJECT_NAME":"ATS 5 AKM","OBJECT_ID":"1969-069C","EPOCH":"2026-04-05T20:09:55.051200","MEAN_MOTION":0.98182023,"ECCENTRICITY":0.0127196,"INCLINATION":0.772,"RA_OF_ASC_NODE":270.7925,"ARG_OF_PERICENTER":311.3095,"MEAN_ANOMALY":34.7443,"EPHEMERIS_TYPE":0,"CLASSIFICATION_TYPE":"U","NORAD_CAT_ID":21052,"ELEMENT_SET_NO":999,"REV_AT_EPOCH":4566,"BSTAR":0,"MEAN_MOTION_DOT":-2.46e-6,"MEAN_MOTION_DDOT":0},{"OBJECT_NAME":"ITALSAT 1","OBJECT_ID":"1991-003A","EPOCH":"2026-04-05T02:11:31.680096","MEAN_MOTION":0.99963965,"ECCENTRICITY":0.00141358,"INCLINATION":14.5678,"RA_OF_ASC_NODE":352.0599,"ARG_OF_PERICENTER":46.6144,"MEAN_ANOMALY":127.2557,"EPHEMERIS_TYPE":0,"CLASSIFICATION_TYPE":"U","NORAD_CAT_ID":21055,"ELEMENT_SET_NO":999,"REV_AT_EPOCH":11635,"BSTAR":0,"MEAN_MOTION_DOT":-2.88e-6,"MEAN_MOTION_DDOT":0},{"OBJECT_NAME":"COSMOS 2133","OBJECT_ID":"1991-010A","EPOCH":"2026-04-05T16:33:05.167296","MEAN_MOTION":1.00272942,"ECCENTRICITY":0.0002878,"INCLINATION":13.2932,"RA_OF_ASC_NODE":343.2722,"ARG_OF_PERICENTER":216.5193,"MEAN_ANOMALY":323.0311,"EPHEMERIS_TYPE":0,"CLASSIFICATION_TYPE":"U","NORAD_CAT_ID":21111,"ELEMENT_SET_NO":999,"REV_AT_EPOCH":12871,"BSTAR":0,"MEAN_MOTION_DOT":-1.6e-6,"MEAN_MOTION_DDOT":0},{"OBJECT_NAME":"MOLNIYA 1-80","OBJECT_ID":"1991-012A","EPOCH":"2026-04-05T18:11:41.029728","MEAN_MOTION":2.05244552,"ECCENTRICITY":0.6322026,"INCLINATION":64.8888,"RA_OF_ASC_NODE":201.2281,"ARG_OF_PERICENTER":257.1557,"MEAN_ANOMALY":29.7186,"EPHEMERIS_TYPE":0,"CLASSIFICATION_TYPE":"U","NORAD_CAT_ID":21118,"ELEMENT_SET_NO":999,"REV_AT_EPOCH":25947,"BSTAR":0,"MEAN_MOTION_DOT":-5.16e-6,"MEAN_MOTION_DDOT":0},{"OBJECT_NAME":"SL-6 R/B(2)","OBJECT_ID":"1991-012D","EPOCH":"2026-04-02T03:44:09.967488","MEAN_MOTION":2.05801495,"ECCENTRICITY":0.64280816,"INCLINATION":64.6404,"RA_OF_ASC_NODE":172.5409,"ARG_OF_PERICENTER":254.6222,"MEAN_ANOMALY":30.1714,"EPHEMERIS_TYPE":0,"CLASSIFICATION_TYPE":"U","NORAD_CAT_ID":21121,"ELEMENT_SET_NO":999,"REV_AT_EPOCH":9556,"BSTAR":0,"MEAN_MOTION_DOT":-2.57e-6,"MEAN_MOTION_DDOT":0},{"OBJECT_NAME":"SL-12 R/B(2)","OBJECT_ID":"1991-010F","EPOCH":"2026-04-05T09:03:38.689632","MEAN_MOTION":1.00128225,"ECCENTRICITY":0.00168461,"INCLINATION":13.203,"RA_OF_ASC_NODE":342.8769,"ARG_OF_PERICENTER":233.0289,"MEAN_ANOMALY":316.622,"EPHEMERIS_TYPE":0,"CLASSIFICATION_TYPE":"U","NORAD_CAT_ID":21129,"ELEMENT_SET_NO":999,"REV_AT_EPOCH":12894,"BSTAR":0,"MEAN_MOTION_DOT":1.03e-6,"MEAN_MOTION_DDOT":0},{"OBJECT_NAME":"RADUGA 27","OBJECT_ID":"1991-014A","EPOCH":"2026-04-05T16:33:35.120448","MEAN_MOTION":1.00377718,"ECCENTRICITY":0.0001694,"INCLINATION":13.4085,"RA_OF_ASC_NODE":337.4052,"ARG_OF_PERICENTER":336.1297,"MEAN_ANOMALY":211.3356,"EPHEMERIS_TYPE":0,"CLASSIFICATION_TYPE":"U","NORAD_CAT_ID":21132,"ELEMENT_SET_NO":999,"REV_AT_EPOCH":12858,"BSTAR":0,"MEAN_MOTION_DOT":-2.0e-6,"MEAN_MOTION_DDOT":0}]
